start=new Date('2021-12-16T00:00:00.000Z').valueOf();
sats=[{"ELEMENT_SET_NO":"999","TLE_LINE2":"2 48297  53.0530 176.6419 0002504  79.3342 280.7929 15.06395008 35474","OBJECT_ID":"2021-036X","REV_AT_EPOCH":"3547","PERIAPSIS":"545.495","RA_OF_ASC_NODE":"176.6419","TIME_SYSTEM":"UTC","MEAN_MOTION":"15.06395008","TLE_LINE1":"1 48297U 21036X   21349.85823563  .00000573  00000-0  57377-4 0  9999","MEAN_ANOMALY":"280.7929","APOAPSIS":"548.963","ECCENTRICITY":"0.00025040","DECAY_DATE":null,"MEAN_ELEMENT_THEORY":"SGP4","MEAN_MOTION_DDOT":"0.0000000000000","ARG_OF_PERICENTER":"79.3342","SEMIMAJOR_AXIS":"6925.364","SITE":"AFETR","CLASSIFICATION_TYPE":"U","EPHEMERIS_TYPE":"0","PERIOD":"95.592","MEAN_MOTION_DOT":"0.00000573","NORAD_CAT_ID":"48297","OBJECT_NAME":"STARLINK-2544","INCLINATION":"53.0530","CENTER_NAME":"EARTH","REF_FRAME":"TEME","OBJECT_TYPE":"PAYLOAD","RCS_SIZE":"LARGE","BSTAR":"0.00005737700000","FILE":"3241542","COUNTRY_CODE":"US","EPOCH":"2021-12-15T20:35:51.558432","LAUNCH_DATE":"2021-04-29","GP_ID":"191798960"},{"GP_ID":"191798208","LAUNCH_DATE":"2021-04-29","EPOCH":"2021-12-15T20:30:33.563232","FILE":"3241542","COUNTRY_CODE":"US","BSTAR":"0.00004734400000","RCS_SIZE":"LARGE","OBJECT_TYPE":"PAYLOAD","REF_FRAME":"TEME","CENTER_NAME":"EARTH","INCLINATION":"53.0534","OBJECT_NAME":"STARLINK-2559","PERIOD":"95.593","MEAN_MOTION_DOT":"0.00000423","NORAD_CAT_ID":"48298","EPHEMERIS_TYPE":"0","CLASSIFICATION_TYPE":"U","SITE":"AFETR","SEMIMAJOR_AXIS":"6925.371","ARG_OF_PERICENTER":"87.1062","MEAN_MOTION_DDOT":"0.0000000000000","MEAN_ELEMENT_THEORY":"SGP4","ECCENTRICITY":"0.00022060","DECAY_DATE":null,"APOAPSIS":"548.763","TLE_LINE1":"1 48298U 21036Y   21349.85455513  .00000423  00000-0  47344-4 0  9993","MEAN_ANOMALY":"273.0179","MEAN_MOTION":"15.06392816","RA_OF_ASC_NODE":"176.6583","TIME_SYSTEM":"UTC","PERIAPSIS":"545.708","REV_AT_EPOCH":"3547","OBJECT_ID":"2021-036Y","TLE_LINE2":"2 48298  53.0534 176.6583 0002206  87.1062 273.0179 15.06392816 35472","ELEMENT_SET_NO":"999"},{"EPHEMERIS_TYPE":"0","CLASSIFICATION_TYPE":"U","INCLINATION":"53.0567","PERIOD":"95.592","MEAN_MOTION_DOT":"0.00000538","NORAD_CAT_ID":"48299","OBJECT_NAME":"STARLINK-2557","CENTER_NAME":"EARTH","REF_FRAME":"TEME","OBJECT_TYPE":"PAYLOAD","RCS_SIZE":"LARGE","EPOCH":"2021-12-15T20:25:13.265472","LAUNCH_DATE":"2021-04-29","FILE":"3241542","COUNTRY_CODE":"US","BSTAR":"0.00005503000000","GP_ID":"191798458","OBJECT_ID":"2021-036Z","TLE_LINE2":"2 48299  53.0567 176.6756 0002230  85.6010 274.5234 15.06404230 35476","ELEMENT_SET_NO":"999","REV_AT_EPOCH":"3547","RA_OF_ASC_NODE":"176.6756","TIME_SYSTEM":"UTC","PERIAPSIS":"545.656","APOAPSIS":"548.745","MEAN_MOTION":"15.06404230","TLE_LINE1":"1 48299U 21036Z   21349.85084798  .00000538  00000-0  55030-4 0  9995","MEAN_ANOMALY":"274.5234","MEAN_MOTION_DDOT":"0.0000000000000","ECCENTRICITY":"0.00022300","DECAY_DATE":null,"MEAN_ELEMENT_THEORY":"SGP4","ARG_OF_PERICENTER":"85.6010","SEMIMAJOR_AXIS":"6925.336","SITE":"AFETR"},{"EPOCH":"2021-12-15T21:48:49.551840","LAUNCH_DATE":"2021-04-29","FILE":"3241542","BSTAR":"-0.00006521000000","COUNTRY_CODE":"US","OBJECT_TYPE":"PAYLOAD","RCS_SIZE":"LARGE","GP_ID":"191798710","INCLINATION":"53.0559","MEAN_MOTION_DOT":"-0.00001253","PERIOD":"95.593","NORAD_CAT_ID":"48300","OBJECT_NAME":"STARLINK-2538","EPHEMERIS_TYPE":"0","CLASSIFICATION_TYPE":"U","REF_FRAME":"TEME","CENTER_NAME":"EARTH","ARG_OF_PERICENTER":"81.7549","MEAN_MOTION_DDOT":"0.0000000000000","ECCENTRICITY":"0.00024850","DECAY_DATE":null,"MEAN_ELEMENT_THEORY":"SGP4","SITE":"AFETR","SEMIMAJOR_AXIS":"6925.372","REV_AT_EPOCH":"3534","OBJECT_ID":"2021-036AA","ELEMENT_SET_NO":"999","TLE_LINE2":"2 48300  53.0559 186.4176 0002485  81.7549 278.3722 15.06392447 35347","APOAPSIS":"548.958","MEAN_MOTION":"15.06392447","TLE_LINE1":"1 48300U 21036AA  21349.90890685 -.00001253  00000-0 -65210-4 0  9992","MEAN_ANOMALY":"278.3722","TIME_SYSTEM":"UTC","RA_OF_ASC_NODE":"186.4176","PERIAPSIS":"545.516"},{"MEAN_MOTION_DDOT":"0.0000000000000","ECCENTRICITY":"0.00025490","DECAY_DATE":null,"MEAN_ELEMENT_THEORY":"SGP4","ARG_OF_PERICENTER":"83.5391","SITE":"AFETR","SEMIMAJOR_AXIS":"6925.331","OBJECT_ID":"2021-036AB","ELEMENT_SET_NO":"999","TLE_LINE2":"2 48301  53.0529 186.7122 0002549  83.5391 276.5888 15.06405720 35325","REV_AT_EPOCH":"3532","RA_OF_ASC_NODE":"186.7122","TIME_SYSTEM":"UTC","PERIAPSIS":"545.431","APOAPSIS":"548.961","MEAN_MOTION":"15.06405720","TLE_LINE1":"1 48301U 21036AB  21349.83886498  .00000822  00000-0  74078-4 0  9993","MEAN_ANOMALY":"276.5888","OBJECT_TYPE":"PAYLOAD","RCS_SIZE":"LARGE","EPOCH":"2021-12-15T20:07:57.934272","LAUNCH_DATE":"2021-04-29","FILE":"3241542","BSTAR":"0.00007407800000","COUNTRY_CODE":"US","GP_ID":"191799460","EPHEMERIS_TYPE":"0","CLASSIFICATION_TYPE":"U","INCLINATION":"53.0529","NORAD_CAT_ID":"48301","PERIOD":"95.592","MEAN_MOTION_DOT":"0.00000822","OBJECT_NAME":"STARLINK-2537","CENTER_NAME":"EARTH","REF_FRAME":"TEME"},{"REF_FRAME":"TEME","CENTER_NAME":"EARTH","INCLINATION":"53.0553","OBJECT_NAME":"STARLINK-2556","MEAN_MOTION_DOT":"0.00000383","PERIOD":"95.593","NORAD_CAT_ID":"48302","EPHEMERIS_TYPE":"0","CLASSIFICATION_TYPE":"U","GP_ID":"191797709","LAUNCH_DATE":"2021-04-29","EPOCH":"2021-12-15T21:38:13.982208","FILE":"3241542","BSTAR":"0.00004465200000","COUNTRY_CODE":"US","RCS_SIZE":"LARGE","OBJECT_TYPE":"PAYLOAD","APOAPSIS":"549.194","MEAN_ANOMALY":"283.9858","TLE_LINE1":"1 48302U 21036AC  21349.90155072  .00000383  00000-0  44652-4 0  9996","MEAN_MOTION":"15.06384595","TIME_SYSTEM":"UTC","RA_OF_ASC_NODE":"186.4404","PERIAPSIS":"545.328","REV_AT_EPOCH":"3533","OBJECT_ID":"2021-036AC","TLE_LINE2":"2 48302  53.0553 186.4404 0002791  76.1441 283.9858 15.06384595 35332","ELEMENT_SET_NO":"999","SEMIMAJOR_AXIS":"6925.396","SITE":"AFETR","ARG_OF_PERICENTER":"76.1441","MEAN_MOTION_DDOT":"0.0000000000000","MEAN_ELEMENT_THEORY":"SGP4","DECAY_DATE":null,"ECCENTRICITY":"0.00027910"},{"OBJECT_ID":"2021-036AD","ELEMENT_SET_NO":"999","TLE_LINE2":"2 48303  53.0535 186.4456 0002415  82.1721 277.9542 15.06391127 35333","REV_AT_EPOCH":"3533","TIME_SYSTEM":"UTC","RA_OF_ASC_NODE":"186.4456","PERIAPSIS":"545.568","APOAPSIS":"548.913","MEAN_MOTION":"15.06391127","MEAN_ANOMALY":"277.9542","TLE_LINE1":"1 48303U 21036AD  21349.89785779  .00001442  00000-0  11575-3 0  9992","MEAN_MOTION_DDOT":"0.0000000000000","ECCENTRICITY":"0.00024150","DECAY_DATE":null,"MEAN_ELEMENT_THEORY":"SGP4","ARG_OF_PERICENTER":"82.1721","SEMIMAJOR_AXIS":"6925.376","SITE":"AFETR","EPHEMERIS_TYPE":"0","CLASSIFICATION_TYPE":"U","INCLINATION":"53.0535","PERIOD":"95.593","NORAD_CAT_ID":"48303","MEAN_MOTION_DOT":"0.00001442","OBJECT_NAME":"STARLINK-2530","CENTER_NAME":"EARTH","REF_FRAME":"TEME","OBJECT_TYPE":"PAYLOAD","RCS_SIZE":"LARGE","EPOCH":"2021-12-15T21:32:54.913056","LAUNCH_DATE":"2021-04-29","FILE":"3241542","BSTAR":"0.00011575000000","COUNTRY_CODE":"US","GP_ID":"191797959"},{"GP_ID":"191799210","EPOCH":"2021-12-15T21:27:34.615296","LAUNCH_DATE":"2021-04-29","FILE":"3241542","COUNTRY_CODE":"US","BSTAR":"0.00005504800000","OBJECT_TYPE":"PAYLOAD","RCS_SIZE":"LARGE","REF_FRAME":"TEME","CENTER_NAME":"EARTH","INCLINATION":"53.0545","PERIOD":"95.592","NORAD_CAT_ID":"48304","MEAN_MOTION_DOT":"0.00000538","OBJECT_NAME":"STARLINK-2524","EPHEMERIS_TYPE":"0","CLASSIFICATION_TYPE":"U","SITE":"AFETR","SEMIMAJOR_AXIS":"6925.331","ARG_OF_PERICENTER":"78.5455","MEAN_MOTION_DDOT":"0.0000000000000","DECAY_DATE":null,"ECCENTRICITY":"0.00028840","MEAN_ELEMENT_THEORY":"SGP4","APOAPSIS":"549.193","MEAN_MOTION":"15.06405684","TLE_LINE1":"1 48304U 21036AE  21349.89415064  .00000538  00000-0  55048-4 0  9999","MEAN_ANOMALY":"281.5858","TIME_SYSTEM":"UTC","RA_OF_ASC_NODE":"186.4741","PERIAPSIS":"545.199","REV_AT_EPOCH":"3533","OBJECT_ID":"2021-036AE","ELEMENT_SET_NO":"999","TLE_LINE2":"2 48304  53.0545 186.4741 0002884  78.5455 281.5858 15.06405684 35330"},{"SEMIMAJOR_AXIS":"6925.367","SITE":"AFETR","MEAN_MOTION_DDOT":"0.0000000000000","ECCENTRICITY":"0.00022020","DECAY_DATE":null,"MEAN_ELEMENT_THEORY":"SGP4","ARG_OF_PERICENTER":"79.8415","RA_OF_ASC_NODE":"186.7805","TIME_SYSTEM":"UTC","PERIAPSIS":"545.707","APOAPSIS":"548.757","MEAN_MOTION":"15.06394115","MEAN_ANOMALY":"280.2822","TLE_LINE1":"1 48305U 21036AF  21349.82413346 -.00001409  00000-0 -75714-4 0  9996","OBJECT_ID":"2021-036AF","ELEMENT_SET_NO":"999","TLE_LINE2":"2 48305  53.0539 186.7805 0002202  79.8415 280.2822 15.06394115 35324","REV_AT_EPOCH":"3532","GP_ID":"191798961","OBJECT_TYPE":"PAYLOAD","RCS_SIZE":"LARGE","EPOCH":"2021-12-15T19:46:45.130944","LAUNCH_DATE":"2021-04-29","FILE":"3241542","BSTAR":"-0.00007571400000","COUNTRY_CODE":"US","CENTER_NAME":"EARTH","REF_FRAME":"TEME","EPHEMERIS_TYPE":"0","CLASSIFICATION_TYPE":"U","INCLINATION":"53.0539","NORAD_CAT_ID":"48305","PERIOD":"95.593","MEAN_MOTION_DOT":"-0.00001409","OBJECT_NAME":"STARLINK-2519"},{"PERIAPSIS":"545.526","TIME_SYSTEM":"UTC","RA_OF_ASC_NODE":"186.8120","MEAN_MOTION":"15.06404728","MEAN_ANOMALY":"275.4657","TLE_LINE1":"1 48306U 21036AG  21349.82043864  .00000668  00000-0  63732-4 0  9992","APOAPSIS":"548.872","ELEMENT_SET_NO":"999","TLE_LINE2":"2 48306  53.0551 186.8120 0002416  84.6608 275.4657 15.06404728 35329","OBJECT_ID":"2021-036AG","REV_AT_EPOCH":"3532","SITE":"AFETR","SEMIMAJOR_AXIS":"6925.334","ECCENTRICITY":"0.00024160","DECAY_DATE":null,"MEAN_ELEMENT_THEORY":"SGP4","MEAN_MOTION_DDOT":"0.0000000000000","ARG_OF_PERICENTER":"84.6608","CENTER_NAME":"EARTH","REF_FRAME":"TEME","CLASSIFICATION_TYPE":"U","EPHEMERIS_TYPE":"0","MEAN_MOTION_DOT":"0.00000668","PERIOD":"95.592","NORAD_CAT_ID":"48306","OBJECT_NAME":"STARLINK-2523","INCLINATION":"53.0551","GP_ID":"191798209","OBJECT_TYPE":"PAYLOAD","RCS_SIZE":"LARGE","BSTAR":"0.00006373200000","FILE":"3241542","COUNTRY_CODE":"US","EPOCH":"2021-12-15T19:41:25.898496","LAUNCH_DATE":"2021-04-29"}];
